GSAT0101 (PRN E11)      
1 37846U 11060A   20286.85563170 -.00000059  00000-0  00000-0 0  9994
2 37846  56.7021  38.0625 0000660 351.3835   8.6164  1.70475199 55777
GSAT0102 (PRN E12)      
1 37847U 11060B   20287.36503112 -.00000061  00000-0  00000-0 0  9995
2 37847  56.7029  38.0479 0002397 294.3724  64.3849  1.70475339 55781
GSAT0103 (PRN E19)      
1 38857U 12055A   20286.89770428  .00000040  00000-0  00000-0 0  9991
2 38857  54.9939 158.5496 0001623 265.7579  94.3238  1.70473780 49811
GSAT0104 (PRN E20)      
1 38858U 12055B   20286.83209200  .00000040  00000-0  00000-0 0  9991
2 38858  54.9948 158.5507 0000532 304.1889  55.9060  1.70473751 49819
GSAT0201 (PRN E18)      
1 40128U 14050A   20287.44262062 -.00000075  00000-0  00000-0 0  9993
2 40128  50.5487 356.6686 1658142 103.2478 275.7108  1.85519094 39866
GSAT0202 (PRN E14)      
1 40129U 14050B   20283.93291885 -.00000080  00000-0  00000+0 0  9994
2 40129  50.5851 355.8494 1656065 103.9482 274.9654  1.85519828 41937
GSAT0203 (PRN E26)      
1 40544U 15017A   20286.63675454 -.00000059  00000-0  00000+0 0  9993
2 40544  56.4955  38.1860 0004000 225.7500 134.2187  1.70474987 34510
GSAT0204 (PRN E22)      
1 40545U 15017B   20287.00434774 -.00000060  00000-0  00000-0 0  9997
2 40545  56.5025  38.1922 0003505 187.5302 172.4651  1.70475135 34520
GSAT0205 (PRN E24)      
1 40889U 15045A   20287.24648700  .00000022  00000-0  00000-0 0  9998
2 40889  56.0640 278.8562 0003913 336.2047  23.7837  1.70474843 31676
GSAT0206 (PRN E30)      
1 40890U 15045B   20286.87945568  .00000024  00000-0  00000-0 0  9992
2 40890  56.0634 278.8626 0003115 309.3309  50.6497  1.70474847 31695
GSAT0209 (PRN E09)      
1 41174U 15079A   20287.05307265  .00000041  00000-0  00000+0 0  9990
2 41174  55.0090 158.2440 0003492 334.3247  25.7594  1.70472976 30015
GSAT0208 (PRN E08)      
1 41175U 15079B   20286.68621995  .00000040  00000-0  00000-0 0  9998
2 41175  55.0072 158.2535 0002807 341.8147  18.2748  1.70472919 30017
GSAT0211 (PRN E02)      
1 41549U 16030A   20286.80737370  .00000025  00000-0  00000-0 0  9993
2 41549  56.2070 278.7331 0004927 296.0491  63.9086  1.70474629 27325
GSAT0210 (PRN E01)      
1 41550U 16030B   20287.10025587  .00000023  00000-0  00000-0 0  9997
2 41550  56.2052 278.7268 0004922 273.0771  86.8736  1.70474533 27327
GSAT0207 (PRN E07)      
1 41859U 16069A   20286.75929848  .00000039  00000-0  00000+0 0  9990
2 41859  54.6673 158.5854 0002995 317.9543  42.1221  1.70472924 24287
GSAT0212 (PRN E03)      
1 41860U 16069B   20286.02615893  .00000036  00000-0  00000+0 0  9991
2 41860  54.6656 158.6045 0002871 354.5236   5.5695  1.70472865 24295
GSAT0213 (PRN E04)      
1 41861U 16069C   20286.39190858  .00000037  00000-0  00000-0 0  9993
2 41861  54.6671 158.5984 0001887 285.6881  74.3888  1.70473077 24306
GSAT0214 (PRN E05)      
1 41862U 16069D   20287.12556130  .00000041  00000-0  00000+0 0  9999
2 41862  54.6656 158.5735 0001231 307.1012  52.9888  1.70472951 24305
GSAT0215 (PRN E21)      
1 43055U 17079A   20286.44207373  .00000027  00000-0  00000-0 0  9998
2 43055  56.1817 278.5850 0004285 268.5864  91.3740  1.70473774 17631
GSAT0216 (PRN E25)      
1 43056U 17079B   20286.73474940  .00000025  00000-0  00000+0 0  9994
2 43056  56.1817 278.5767 0006123 271.1668  88.7714  1.70473886 17628
GSAT0217 (PRN E27)      
1 43057U 17079C   20286.95481936  .00000024  00000-0  00000+0 0  9991
2 43057  56.1787 278.5712 0005607 279.6379  80.3061  1.70473899 17642
GSAT0218 (PRN E31)      
1 43058U 17079D   20286.58824065  .00000026  00000-0  00000+0 0  9997
2 43058  56.1802 278.5786 0006581 268.3197  91.6139  1.70473835 17637
GSAT0221 (PRN E15)      
1 43564U 18060A   20287.07426620 -.00000060  00000-0  00000+0 0  9999
2 43564  56.8825  37.8319 0004010 248.0844 111.8737  1.70476075 13834
GSAT0222 (PRN E33)      
1 43565U 18060B   20286.70753559 -.00000059  00000-0  00000-0 0  9992
2 43565  56.8845  37.8416 0003456 254.7028 105.2606  1.70476082 13869
GSAT0219 (PRN E36)      
1 43566U 18060C   20286.92788282 -.00000060  00000-0  00000+0 0  9999
2 43566  56.8857  37.8374 0003509 247.0321 112.9319  1.70475937 13848
GSAT0220 (PRN E13)      
1 43567U 18060D   20287.14775728 -.00000060  00000-0  00000-0 0  9997
2 43567  56.8849  37.8324 0003536 248.9866 110.9761  1.70475793 13837
